OBJECT_NAME,OBJECT_ID,EPOCH,MEAN_MOTION,ECCENTRICITY,INCLINATION,RA_OF_ASC_NODE,ARG_OF_PERICENTER,MEAN_ANOMALY,EPHEMERIS_TYPE,CLASSIFICATION_TYPE,NORAD_CAT_ID,ELEMENT_SET_NO,REV_AT_EPOCH,BSTAR,MEAN_MOTION_DOT,MEAN_MOTION_DDOT
SAR-LUPE 2,2007-030A,2026-06-18T23:03:00.304416,15.50461048,.00039444,98.1044,274.6120,153.5347,206.6105,0,U,31797,999,5721,.29851769E-3,.16912E-3,0
SAPPHIRE,2013-009C,2026-06-18T21:42:48.910464,14.35240980,.00101235,98.4262,349.3197,240.9383,119.0789,0,U,39088,999,69682,.40248146E-4,.72E-6,0
PRAETORIAN SDA_602,2025-203A,2026-06-18T19:56:32.207712,13.84342963,.00058668,81.3030,9.2458,179.4644,180.6520,0,U,65565,999,3892,.33229136E-4,.49E-6,0
PRAETORIAN SDA_603,2025-203B,2026-06-18T22:19:49.603872,13.83905658,.00094359,81.3032,9.0715,182.6685,177.4423,0,U,65566,999,3894,.80418074E-4,.101E-5,0
PRAETORIAN SDA_604,2025-203C,2026-06-18T21:05:35.858400,13.83047632,.00053607,81.3052,9.5342,186.5971,173.5116,0,U,65567,999,3891,.33016063E-4,.48E-6,0
PRAETORIAN SDA_605,2025-203D,2026-06-18T21:59:08.595744,13.83434291,.00081715,81.3018,9.1611,178.2960,181.8226,0,U,65568,999,3893,.21909957E-4,.36E-6,0
PRAETORIAN SDA_606,2025-203E,2026-06-17T07:22:48.694656,13.83407378,.00057443,81.3055,10.8712,180.4388,179.6764,0,U,65569,999,3870,.3743896E-4,.53E-6,0
PRAETORIAN SDA_607,2025-203F,2026-06-18T21:44:04.056000,13.84284664,.0008759,81.3038,9.0538,182.6672,177.4440,0,U,65570,999,3894,.14829193E-3,.177E-5,0
PRAETORIAN SDA_608,2025-203G,2026-06-18T21:12:21.318912,13.83817025,.00058546,81.3006,9.2367,186.0176,174.0911,0,U,65571,999,3892,.36725341E-4,.53E-6,0
PRAETORIAN SDA_609,2025-203H,2026-06-18T23:02:48.937632,13.84208944,.00068397,81.3040,9.1482,180.0041,180.1117,0,U,65572,999,3894,.15383822E-3,.183E-5,0
PRAETORIAN SDA_610,2025-203J,2026-06-18T01:37:53.160096,13.83851939,.0006474,81.3007,9.9498,186.0221,174.0859,0,U,65573,999,3881,.23778E-4,.38E-6,0
PRAETORIAN SDA_611,2025-203K,2026-06-18T22:29:22.037568,13.83309413,.0005369,81.3007,9.3121,189.8817,170.2234,0,U,65574,999,3892,.29412921E-3,.335E-5,0
PRAETORIAN SDA_612,2025-203L,2026-06-18T22:11:16.079424,13.85039273,.00091965,81.3025,8.9060,182.3252,177.7864,0,U,65575,999,3895,.11750453E-3,.145E-5,0
PRAETORIAN SDA_613,2025-203M,2026-06-18T12:14:53.812320,13.82765156,.0005635,81.2998,9.7050,180.0483,180.0673,0,U,65576,999,3886,.2871E-4,.43E-6,0
PRAETORIAN SDA_614,2025-203N,2026-06-17T23:23:34.307232,13.84777941,.00070374,81.3014,9.8650,181.5884,178.5252,0,U,65577,999,3882,.3301173E-5,.16E-6,0
PRAETORIAN SDA_615,2025-203P,2026-06-18T23:07:33.159072,13.84436294,.00089819,81.3021,8.9132,180.8065,179.3079,0,U,65578,999,3895,.23965264E-3,.28E-5,0
PRAETORIAN SDA_616,2025-203Q,2026-06-18T22:28:18.599232,13.83267848,.00054932,81.3056,9.4581,187.7858,172.3214,0,U,65579,999,3892,.16407119E-3,.192E-5,0
PRAETORIAN SDA_617,2025-203R,2026-06-18T21:15:28.075968,13.83150129,.00073549,81.3036,9.3371,179.4279,180.6887,0,U,65580,999,3892,.15910239E-4,.29E-6,0
PRAETORIAN SDA_618,2025-203S,2026-06-18T22:18:14.194080,13.84669735,.00096913,81.3016,8.8737,183.0051,177.1050,0,U,65581,999,3895,.11828168E-3,.145E-5,0
PRAETORIAN SDA_619,2025-203T,2026-06-18T23:11:33.877248,13.83805811,.00082474,81.3041,9.1388,180.7136,179.4010,0,U,65582,999,3957,.16354658E-3,.193E-5,0
PRAETORIAN SDA_620,2025-203U,2026-06-18T22:08:05.024832,13.83618196,.00076493,81.3033,9.2013,176.4063,183.7150,0,U,65583,999,3893,.25026052E-3,.288E-5,0
PRAETORIAN SDA_621,2025-203V,2026-06-18T23:14:07.533600,13.83801436,.00074421,81.3020,9.0759,173.8383,186.2866,0,U,65584,999,3894,.33944011E-4,.49E-6,0
PRAETORIAN SDA_601,2025-203W,2026-06-18T22:33:00.479232,13.83167817,.0005339,81.3040,9.4004,190.6169,169.4875,0,U,65585,999,3892,.22766269E-3,.261E-5,0
