SAR-LUPE 2              
1 31797U 07030A   26169.96042019  .00016912  00000+0  29852-3 0  9999
2 31797  98.1044 274.6120 0003944 153.5347 206.6105 15.50461048 57214
SAPPHIRE                
1 39088U 13009C   26169.90473276  .00000072  00000+0  40248-4 0  9993
2 39088  98.4262 349.3197 0010123 240.9383 119.0789 14.35240980696825
PRAETORIAN SDA_602      
1 65565U 25203A   26169.83092833  .00000049  00000+0  33229-4 0  9994
2 65565  81.3030   9.2458 0005866 179.4644 180.6520 13.84342963 38929
PRAETORIAN SDA_603      
1 65566U 25203B   26169.93043523  .00000101  00000+0  80418-4 0  9999
2 65566  81.3032   9.0715 0009435 182.6685 177.4423 13.83905658 38946
PRAETORIAN SDA_604      
1 65567U 25203C   26169.87888725  .00000048  00000+0  33016-4 0  9996
2 65567  81.3052   9.5342 0005360 186.5971 173.5116 13.83047632 38916
PRAETORIAN SDA_605      
1 65568U 25203D   26169.91607171  .00000036  00000+0  21910-4 0  9993
2 65568  81.3018   9.1611 0008171 178.2960 181.8226 13.83434291 38930
PRAETORIAN SDA_606      
1 65569U 25203E   26168.30750804  .00000053  00000+0  37439-4 0  9990
2 65569  81.3055  10.8712 0005744 180.4388 179.6764 13.83407378 38708
PRAETORIAN SDA_607      
1 65570U 25203F   26169.90560250  .00000177  00000+0  14829-3 0  9997
2 65570  81.3038   9.0538 0008759 182.6672 177.4440 13.84284664 38941
PRAETORIAN SDA_608      
1 65571U 25203G   26169.88358008  .00000053  00000+0  36725-4 0  9994
2 65571  81.3006   9.2367 0005854 186.0176 174.0911 13.83817025 38925
PRAETORIAN SDA_609      
1 65572U 25203H   26169.96028863  .00000183  00000+0  15384-3 0  9998
2 65572  81.3040   9.1482 0006839 180.0041 180.1117 13.84208944 38943
PRAETORIAN SDA_610      
1 65573U 25203J   26169.06797639  .00000038  00000+0  23778-4 0  9990
2 65573  81.3007   9.9498 0006474 186.0221 174.0859 13.83851939 38811
PRAETORIAN SDA_611      
1 65574U 25203K   26169.93706062  .00000335  00000+0  29413-3 0  9998
2 65574  81.3007   9.3121 0005369 189.8817 170.2234 13.83309413 38925
PRAETORIAN SDA_612      
1 65575U 25203L   26169.92449166  .00000145  00000+0  11750-3 0  9991
2 65575  81.3025   8.9060 0009196 182.3252 177.7864 13.85039273 38956
PRAETORIAN SDA_613      
1 65576U 25203M   26169.51034505  .00000043  00000+0  28710-4 0  9996
2 65576  81.2998   9.7050 0005635 180.0483 180.0673 13.82765156 38866
PRAETORIAN SDA_614      
1 65577U 25203N   26168.97470263  .00000016  00000+0  33012-5 0  9993
2 65577  81.3014   9.8650 0007037 181.5884 178.5252 13.84777941 38821
PRAETORIAN SDA_615      
1 65578U 25203P   26169.96357823  .00000280  00000+0  23965-3 0  9997
2 65578  81.3021   8.9132 0008981 180.8065 179.3079 13.84436294 38950
PRAETORIAN SDA_616      
1 65579U 25203Q   26169.93632638  .00000192  00000+0  16407-3 0  9990
2 65579  81.3056   9.4581 0005493 187.7858 172.3214 13.83267848 38921
PRAETORIAN SDA_617      
1 65580U 25203R   26169.88574162  .00000029  00000+0  15910-4 0  9991
2 65580  81.3036   9.3371 0007354 179.4279 180.6887 13.83150129 38921
PRAETORIAN SDA_618      
1 65581U 25203S   26169.92933095  .00000145  00000+0  11828-3 0  9993
2 65581  81.3016   8.8737 0009691 183.0051 177.1050 13.84669735 38950
PRAETORIAN SDA_619      
1 65582U 25203T   26169.96636432  .00000193  00000+0  16355-3 0  9996
2 65582  81.3041   9.1388 0008247 180.7136 179.4010 13.83805811 39575
PRAETORIAN SDA_620      
1 65583U 25203U   26169.92228038  .00000288  00000+0  25026-3 0  9992
2 65583  81.3033   9.2013 0007649 176.4063 183.7150 13.83618196 38939
PRAETORIAN SDA_621      
1 65584U 25203V   26169.96814275  .00000049  00000+0  33944-4 0  9995
2 65584  81.3020   9.0759 0007442 173.8383 186.2866 13.83801436 38942
PRAETORIAN SDA_601      
1 65585U 25203W   26169.93958888  .00000261  00000+0  22766-3 0  9997
2 65585  81.3040   9.4004 0005339 190.6169 169.4875 13.83167817 38923
